     2.100          NAVIGATION                              RINEX VERSION / TYPE
fic2rin                                 08/18/2017 00:33:39 PGM / RUN BY / DATE
                                                            END OF HEADER
29 17  8 17 16  0  0.0  .573606695980D-03 -.420641299570D-11  .000000000000D+00
     .530000000000D+02 -.790000000000D+02  .440089760076D-08 -.163560312665D+01
    -.405684113503D-05  .586135429330D-03  .349991023540D-05  .515358372116D+04
     .403200000000D+06  .502914190292D-07  .139257629522D+01  .000000000000D+00
     .981544806287D+00  .324687500000D+03  .802401698269D+00 -.820498462769D-08
    -.953611150304D-10  .100000000000D+01  .196200000000D+04  .000000000000D+00
     .240000000000D+01  .000000000000D+00 -.102445483208D-07  .530000000000D+02
     .396006000000D+06  .400000000000D+01
30 17  8 17 16  0  0.0  .145323108882D-03 -.181898940355D-11  .000000000000D+00
     .640000000000D+02  .873437500000D+02  .446375736198D-08  .457312840733D+00
     .453554093838D-05  .305657135323D-02  .105351209641D-04  .515364855003D+04
     .403200000000D+06  .102445483208D-06 -.701411663423D+00  .465661287308D-07
     .947165046460D+00  .168937500000D+03 -.308514063887D+01 -.803819196582D-08
    -.105361531588D-09  .100000000000D+01  .196200000000D+04  .000000000000D+00
     .240000000000D+01  .000000000000D+00  .372529029846D-08  .640000000000D+02
     .396006000000D+06  .400000000000D+01
31 17  8 17 16  0  0.0  .181282870471D-03 -.250111042988D-11  .000000000000D+00
     .240000000000D+02  .567500000000D+02  .412302888356D-08  .281941552454D+00
     .309944152832D-05  .845323456451D-02  .103134661913D-04  .515376586533D+04
     .403200000000D+06  .122934579849D-06 -.727848569517D+00 -.763684511185D-07
     .966170615444D+00  .181562500000D+03 -.248016343219D+00 -.795711716015D-08
    -.132505519387D-09  .100000000000D+01  .196200000000D+04  .000000000000D+00
     .240000000000D+01  .000000000000D+00 -.135041773319D-07  .240000000000D+02
     .396006000000D+06  .400000000000D+01
32 17  8 17 16  0  0.0 -.484661664814D-03 -.682121026330D-11  .000000000000D+00
     .880000000000D+02 -.182187500000D+02  .470698177897D-08 -.238620761071D+01
    -.795349478722D-06  .142365403008D-02  .714696943760D-05  .515374599457D+04
     .403200000000D+06 -.819563865662D-07 -.181430643614D+01 -.186264514923D-08
     .957427349492D+00  .240218750000D+03 -.253424801682D+01 -.807497921244D-08
    -.317513225700D-09  .100000000000D+01  .196200000000D+04  .000000000000D+00
     .240000000000D+01  .000000000000D+00  .931322574615D-09  .880000000000D+02
     .396006000000D+06  .400000000000D+01
25 17  8 17 15 59 44.0 -.440611504018D-03 -.636646291241D-11  .000000000000D+00
     .600000000000D+01  .915312500000D+02  .438053960991D-08 -.561766745211D+00
     .496394932270D-05  .654409162235D-02  .502727925777D-05  .515376972961D+04
     .403184000000D+06 -.745058059692D-08  .290263869581D+00  .111758708954D-06
     .976868271193D+00  .294250000000D+03  .832109210814D+00 -.825534386821D-08
     .307155651409D-09  .100000000000D+01  .196200000000D+04  .000000000000D+00
     .240000000000D+01  .000000000000D+00  .558793544769D-08  .600000000000D+01
     .397476000000D+06  .400000000000D+01
25 17  8 17 17 59 44.0 -.440657604486D-03 -.636646291241D-11  .000000000000D+00
     .700000000000D+01  .100437500000D+03  .424624830186D-08  .488370145365D+00
     .499933958054D-05  .654533330817D-02  .494159758091D-05  .515377209663D+04
     .410384000000D+06 -.763684511185D-07  .290204344907D+00  .614672899246D-07
     .976870427534D+00  .295031250000D+03  .832092289241D+00 -.826677291570D-08
     .288940606965D-09  .100000000000D+01  .196200000000D+04  .000000000000D+00
     .240000000000D+01  .000000000000D+00  .558793544769D-08  .700000000000D+01
     .403206000000D+06  .400000000000D+01
 1 17  8 17 18  0  0.0  .560535117984D-04 -.341060513165D-12  .000000000000D+00
     .510000000000D+02 -.803437500000D+02  .424946272147D-08  .216410627610D+01
    -.417791306973D-05  .699647155125D-02  .107157975435D-04  .515368924332D+04
     .410400000000D+06 -.188127160072D-06  .238740330486D+01 -.745058059692D-07
     .968391959995D+00  .178250000000D+03  .606454870971D+00 -.780603943859D-08
     .144648882349D-09  .100000000000D+01  .196200000000D+04  .000000000000D+00
     .240000000000D+01  .000000000000D+00  .558793544769D-08  .510000000000D+02
     .403206000000D+06  .400000000000D+01
 2 17  8 17 18  0  0.0  .351898837835D-03 -.875388650456D-11  .000000000000D+00
     .510000000000D+02 -.105968750000D+03  .460412035152D-08  .252803011760D+01
    -.549294054508D-05  .169839673908D-01  .110100954771D-04  .515357174110D+04
     .410400000000D+06  .707805156708D-07  .233228439472D+01 -.204890966415D-06
     .947319094660D+00  .154406250000D+03 -.196313607339D+01 -.774782272792D-08
     .900037490174D-10  .100000000000D+01  .196200000000D+04  .000000000000D+00
     .240000000000D+01  .000000000000D+00 -.204890966415D-07  .510000000000D+02
     .403206000000D+06  .400000000000D+01
 3 17  8 17 18  0  0.0 -.775475054979D-04  .375166564481D-11  .000000000000D+00
     .830000000000D+02  .209062500000D+02  .482127225391D-08  .133821146083D+01
     .112876296043D-05  .901502673514D-03  .791065394878D-05  .515367436409D+04
     .410400000000D+06  .614672899246D-07 -.285362167696D+01  .558793544769D-07
     .960413608556D+00  .224937500000D+03  .303379178858D+00 -.815855412224D-08
     .313227332890D-09  .100000000000D+01  .196200000000D+04  .000000000000D+00
     .240000000000D+01  .000000000000D+00  .232830643654D-08  .830000000000D+02
     .403206000000D+06  .400000000000D+01
 4 17  8 17 18  0  0.0  .113872811198D-04  .557065504836D-11  .000000000000D+00
     .184000000000D+03 -.602500000000D+02  .485948813147D-08 -.170259508431D+01
    -.334903597832D-05  .123023835476D-01  .207498669624D-05  .515366529655D+04
     .410400000000D+06  .117346644402D-06  .124069715988D+01 -.184401869774D-06
     .956592374369D+00  .334312500000D+03  .432132399866D+00 -.842535094969D-08
     .133934150324D-09  .100000000000D+01  .196200000000D+04  .000000000000D+00
     .340000000000D+01  .630000000000D+02 -.558793544769D-08  .184000000000D+03
     .403206000000D+06  .400000000000D+01
 5 17  8 17 18  0  0.0 -.328752212226D-04  .147792889038D-11  .000000000000D+00
     .610000000000D+02  .118437500000D+02  .506699677504D-08 -.120139515616D+01
     .620260834694D-06  .516457716003D-02  .780820846558D-05  .515380158043D+04
     .410400000000D+06  .139698386192D-06 -.287156774069D+01 -.204890966415D-07
     .947363514704D+00  .222156250000D+03  .573705306592D+00 -.818676958324D-08
     .343942898031D-09  .100000000000D+01  .196200000000D+04  .000000000000D+00
     .240000000000D+01  .000000000000D+00 -.107102096081D-07  .610000000000D+02
     .403206000000D+06  .400000000000D+01
 6 17  8 17 18  0  0.0  .389148015529D-03  .375166564481D-11  .000000000000D+00
     .250000000000D+02 -.780312500000D+02  .423874798944D-08  .223177936842D+01
    -.391714274883D-05  .600585364737D-03  .112093985081D-04  .515373582268D+04
     .410400000000D+06 -.372529029846D-08  .237903824419D+01 -.316649675369D-07
     .968146319957D+00  .164218750000D+03 -.103013257279D+01 -.785175562857D-08
     .123219418298D-09  .100000000000D+01  .196200000000D+04  .000000000000D+00
     .240000000000D+01  .000000000000D+00  .465661287308D-08  .250000000000D+02
     .403206000000D+06  .400000000000D+01
 7 17  8 17 18  0  0.0  .314420554787D-03 -.477484718431D-11  .000000000000D+00
     .280000000000D+02  .634687500000D+02  .419910348094D-08  .154006456825D+01
     .341609120369D-05  .109960406553D-01  .109039247036D-04  .515373169136D+04
     .410400000000D+06 -.163912773132D-06 -.739195551696D+00  .670552253723D-07
     .961432939152D+00  .172125000000D+03 -.257223527266D+01 -.789640034534D-08
    -.356800576462D-09  .100000000000D+01  .196200000000D+04  .000000000000D+00
     .240000000000D+01  .000000000000D+00 -.111758708954D-07  .280000000000D+02
     .403206000000D+06  .400000000000D+01
 8 17  8 17 18  0  0.0 -.702235847712D-04 -.136424205266D-11  .000000000000D+00
     .480000000000D+02 -.634375000000D+02  .460947771753D-08 -.142300171872D+01
    -.349059700966D-05  .256029504817D-02  .350363552570D-05  .515367829132D+04
     .410400000000D+06 -.391155481339D-07  .132358293396D+01 -.968575477600D-07
     .967134731124D+00  .318187500000D+03 -.623467572487D+00 -.837356307823D-08
    -.400016662300D-10  .100000000000D+01  .196200000000D+04  .000000000000D+00
     .340000000000D+01  .000000000000D+00  .558793544769D-08  .480000000000D+02
     .403206000000D+06  .400000000000D+01
 9 17  8 17 18  0  0.0  .426862854511D-03  .693489710102D-11  .000000000000D+00
     .600000000000D+01 -.129062500000D+02  .494913472276D-08 -.179938635116D+01
    -.830739736557D-06  .673195580021D-03  .690482556820D-05  .515356727219D+04
     .410400000000D+06 -.204890966415D-07 -.181797087769D+01  .782310962677D-07
     .952957017091D+00  .241781250000D+03  .190180383417D+01 -.821355641331D-08
    -.461090634847D-09  .100000000000D+01  .196200000000D+04  .000000000000D+00
     .240000000000D+01  .000000000000D+00  .931322574615D-09  .600000000000D+01
     .403206000000D+06  .400000000000D+01
10 17  8 17 18  0  0.0  .398536212742D-04  .106865627458D-10  .000000000000D+00
     .250000000000D+02  .959375000000D+01  .476412701644D-08  .813312787914D-01
     .337138772011D-06  .268236279953D-02  .808760523796D-05  .515366790581D+04
     .410400000000D+06 -.186264514923D-08 -.285727561622D+01  .167638063431D-07
     .960564783585D+00  .221218750000D+03 -.281405192998D+01 -.809105131048D-08
     .271797035723D-09  .100000000000D+01  .196200000000D+04  .000000000000D+00
     .240000000000D+01  .000000000000D+00  .186264514923D-08  .250000000000D+02
     .403206000000D+06  .400000000000D+01
